start=new Date('2022-10-27T00:00:00.000Z').valueOf();
sats=[{"APOAPSIS":"563.962","DECAY_DATE":null,"TLE_LINE2":"2 53055  97.6523 119.1697 0001325  44.7545 315.3786 15.01250084 16383","MEAN_ELEMENT_THEORY":"SGP4","MEAN_MOTION":"15.01250084","PERIAPSIS":"562.123","MEAN_ANOMALY":"315.3786","OBJECT_TYPE":"PAYLOAD","RCS_SIZE":"LARGE","RA_OF_ASC_NODE":"119.1697","TIME_SYSTEM":"UTC","REV_AT_EPOCH":"1638","LAUNCH_DATE":"2022-07-11","SITE":"AFWTR","CLASSIFICATION_TYPE":"U","SEMIMAJOR_AXIS":"6941.177","ARG_OF_PERICENTER":"44.7545","PERIOD":"95.920","OBJECT_ID":"2022-077N","INCLINATION":"97.6523","REF_FRAME":"TEME","BSTAR":"0.00007010100000","CENTER_NAME":"EARTH","OBJECT_NAME":"STARLINK-4338","EPOCH":"2022-10-26T18:04:09.733152","NORAD_CAT_ID":"53055","GP_ID":"216268138","MEAN_MOTION_DDOT":"0.0000000000000","EPHEMERIS_TYPE":"0","MEAN_MOTION_DOT":"0.00000841","ECCENTRICITY":"0.00013250","TLE_LINE1":"1 53055U 22077N   22299.75289043  .00000841  00000-0  70101-4 0  9994","ELEMENT_SET_NO":"999","COUNTRY_CODE":"US","FILE":"3635100"},{"NORAD_CAT_ID":"53056","OBJECT_NAME":"STARLINK-4314","EPOCH":"2022-10-26T11:45:33.909120","CENTER_NAME":"EARTH","INCLINATION":"97.6534","PERIOD":"95.919","OBJECT_ID":"2022-077P","BSTAR":"0.00001060600000","REF_FRAME":"TEME","TLE_LINE1":"1 53056U 22077P   22299.48997580  .00000077  00000-0  10606-4 0  9992","ECCENTRICITY":"0.00016860","MEAN_MOTION_DDOT":"0.0000000000000","GP_ID":"216211084","EPHEMERIS_TYPE":"0","MEAN_MOTION_DOT":"0.00000077","ELEMENT_SET_NO":"999","COUNTRY_CODE":"US","FILE":"3634846","MEAN_MOTION":"15.01261573","TLE_LINE2":"2 53056  97.6534 118.9142 0001686  39.3951 320.7396 15.01261573 16347","MEAN_ELEMENT_THEORY":"SGP4","DECAY_DATE":null,"APOAPSIS":"564.177","MEAN_ANOMALY":"320.7396","PERIAPSIS":"561.837","REV_AT_EPOCH":"1634","LAUNCH_DATE":"2022-07-11","TIME_SYSTEM":"UTC","RCS_SIZE":"LARGE","RA_OF_ASC_NODE":"118.9142","OBJECT_TYPE":"PAYLOAD","SEMIMAJOR_AXIS":"6941.142","ARG_OF_PERICENTER":"39.3951","CLASSIFICATION_TYPE":"U","SITE":"AFWTR"},{"APOAPSIS":"563.599","DECAY_DATE":null,"MEAN_MOTION":"15.01257416","MEAN_ELEMENT_THEORY":"SGP4","TLE_LINE2":"2 53057  97.6541 119.2228 0000834  77.6275 282.5042 15.01257416 16392","MEAN_ANOMALY":"282.5042","PERIAPSIS":"562.441","TIME_SYSTEM":"UTC","RCS_SIZE":"LARGE","OBJECT_TYPE":"PAYLOAD","RA_OF_ASC_NODE":"119.2228","LAUNCH_DATE":"2022-07-11","REV_AT_EPOCH":"1639","CLASSIFICATION_TYPE":"U","SITE":"AFWTR","ARG_OF_PERICENTER":"77.6275","SEMIMAJOR_AXIS":"6941.155","CENTER_NAME":"EARTH","REF_FRAME":"TEME","BSTAR":"0.00008424100000","PERIOD":"95.920","INCLINATION":"97.6541","OBJECT_ID":"2022-077Q","NORAD_CAT_ID":"53057","EPOCH":"2022-10-26T19:34:47.375040","OBJECT_NAME":"STARLINK-4252","MEAN_MOTION_DOT":"0.00001023","GP_ID":"216267551","EPHEMERIS_TYPE":"0","MEAN_MOTION_DDOT":"0.0000000000000","TLE_LINE1":"1 53057U 22077Q   22299.81582610  .00001023  00000-0  84241-4 0  9992","ECCENTRICITY":"0.00008340","ELEMENT_SET_NO":"999","FILE":"3635100","COUNTRY_CODE":"US"},{"RCS_SIZE":"LARGE","OBJECT_TYPE":"PAYLOAD","RA_OF_ASC_NODE":"119.1704","TIME_SYSTEM":"UTC","REV_AT_EPOCH":"1638","LAUNCH_DATE":"2022-07-11","SITE":"AFWTR","CLASSIFICATION_TYPE":"U","SEMIMAJOR_AXIS":"6941.177","ARG_OF_PERICENTER":"66.1390","APOAPSIS":"563.854","DECAY_DATE":null,"TLE_LINE2":"2 53058  97.6527 119.1704 0001169  66.1390 293.9957 15.01250087 16385","MEAN_ELEMENT_THEORY":"SGP4","MEAN_MOTION":"15.01250087","PERIAPSIS":"562.231","MEAN_ANOMALY":"293.9957","ELEMENT_SET_NO":"999","COUNTRY_CODE":"US","FILE":"3635100","PERIOD":"95.920","INCLINATION":"97.6527","OBJECT_ID":"2022-077R","BSTAR":"0.00002284800000","REF_FRAME":"TEME","CENTER_NAME":"EARTH","EPOCH":"2022-10-26T18:04:31.124928","OBJECT_NAME":"STARLINK-4317","NORAD_CAT_ID":"53058","EPHEMERIS_TYPE":"0","GP_ID":"216267376","MEAN_MOTION_DDOT":"0.0000000000000","MEAN_MOTION_DOT":"0.00000234","ECCENTRICITY":"0.00011690","TLE_LINE1":"1 53058U 22077R   22299.75313802  .00000234  00000-0  22848-4 0  9999"},{"SITE":"AFWTR","CLASSIFICATION_TYPE":"U","SEMIMAJOR_AXIS":"6941.186","ARG_OF_PERICENTER":"116.4610","RCS_SIZE":"LARGE","RA_OF_ASC_NODE":"119.2167","OBJECT_TYPE":"PAYLOAD","TIME_SYSTEM":"UTC","REV_AT_EPOCH":"1639","LAUNCH_DATE":"2022-07-11","PERIAPSIS":"562.357","MEAN_ANOMALY":"243.6717","APOAPSIS":"563.746","DECAY_DATE":null,"TLE_LINE2":"2 53059  97.6548 119.2167 0001001 116.4610 243.6717 15.01247172 16390","MEAN_ELEMENT_THEORY":"SGP4","MEAN_MOTION":"15.01247172","COUNTRY_CODE":"US","FILE":"3635100","ELEMENT_SET_NO":"999","GP_ID":"216268422","EPHEMERIS_TYPE":"0","MEAN_MOTION_DDOT":"0.0000000000000","MEAN_MOTION_DOT":"0.00003233","ECCENTRICITY":"0.00010010","TLE_LINE1":"1 53059U 22077S   22299.81239779  .00003233  00000-0  25625-3 0  9994","PERIOD":"95.920","OBJECT_ID":"2022-077S","INCLINATION":"97.6548","REF_FRAME":"TEME","BSTAR":"0.00025625000000","CENTER_NAME":"EARTH","EPOCH":"2022-10-26T19:29:51.169056","OBJECT_NAME":"STARLINK-4320","NORAD_CAT_ID":"53059"},{"MEAN_ANOMALY":"297.1785","PERIAPSIS":"562.326","APOAPSIS":"563.756","DECAY_DATE":null,"MEAN_MOTION":"15.01250571","TLE_LINE2":"2 53060  97.6540 119.2255 0001030  62.9544 297.1785 15.01250571 16975","MEAN_ELEMENT_THEORY":"SGP4","CLASSIFICATION_TYPE":"U","SITE":"AFWTR","SEMIMAJOR_AXIS":"6941.176","ARG_OF_PERICENTER":"62.9544","TIME_SYSTEM":"UTC","RA_OF_ASC_NODE":"119.2255","RCS_SIZE":"LARGE","OBJECT_TYPE":"PAYLOAD","REV_AT_EPOCH":"1697","LAUNCH_DATE":"2022-07-11","GP_ID":"216238651","MEAN_MOTION_DDOT":"0.0000000000000","EPHEMERIS_TYPE":"0","MEAN_MOTION_DOT":"-0.00000073","TLE_LINE1":"1 53060U 22077T   22299.81769348 -.00000073  00000-0 -10825-5 0  9995","ECCENTRICITY":"0.00010300","CENTER_NAME":"EARTH","INCLINATION":"97.6540","PERIOD":"95.920","OBJECT_ID":"2022-077T","REF_FRAME":"TEME","BSTAR":"-0.00000108250000","NORAD_CAT_ID":"53060","OBJECT_NAME":"STARLINK-4305","EPOCH":"2022-10-26T19:37:28.716672","COUNTRY_CODE":"US","FILE":"3634897","ELEMENT_SET_NO":"999"},{"PERIAPSIS":"562.104","MEAN_ANOMALY":"230.1584","MEAN_ELEMENT_THEORY":"SGP4","TLE_LINE2":"2 53061  97.6553 119.2114 0001299 129.9755 230.1584 15.01261917 16395","MEAN_MOTION":"15.01261917","APOAPSIS":"563.908","DECAY_DATE":null,"ARG_OF_PERICENTER":"129.9755","SEMIMAJOR_AXIS":"6941.141","SITE":"AFWTR","CLASSIFICATION_TYPE":"U","LAUNCH_DATE":"2022-07-11","REV_AT_EPOCH":"1639","RCS_SIZE":"LARGE","OBJECT_TYPE":"PAYLOAD","RA_OF_ASC_NODE":"119.2114","TIME_SYSTEM":"UTC","ECCENTRICITY":"0.00012990","TLE_LINE1":"1 53061U 22077U   22299.81027994  .00000972  00000-0  80260-4 0  9995","MEAN_MOTION_DOT":"0.00000972","EPHEMERIS_TYPE":"0","GP_ID":"216267970","MEAN_MOTION_DDOT":"0.0000000000000","EPOCH":"2022-10-26T19:26:48.186816","OBJECT_NAME":"STARLINK-4308","NORAD_CAT_ID":"53061","BSTAR":"0.00008026000000","REF_FRAME":"TEME","OBJECT_ID":"2022-077U","PERIOD":"95.919","INCLINATION":"97.6553","CENTER_NAME":"EARTH","FILE":"3635100","COUNTRY_CODE":"US","ELEMENT_SET_NO":"999"},{"ECCENTRICITY":"0.00004610","TLE_LINE1":"1 53062U 22077V   22299.81399210  .00000482  00000-0  42126-4 0  9994","MEAN_MOTION_DOT":"0.00000482","MEAN_MOTION_DDOT":"0.0000000000000","GP_ID":"216267795","EPHEMERIS_TYPE":"0","EPOCH":"2022-10-26T19:32:08.917440","OBJECT_NAME":"STARLINK-4311","NORAD_CAT_ID":"53062","BSTAR":"0.00004212600000","REF_FRAME":"TEME","PERIOD":"95.920","OBJECT_ID":"2022-077V","INCLINATION":"97.6547","CENTER_NAME":"EARTH","FILE":"3635100","COUNTRY_CODE":"US","ELEMENT_SET_NO":"999","PERIAPSIS":"562.725","MEAN_ANOMALY":"254.9996","MEAN_ELEMENT_THEORY":"SGP4","TLE_LINE2":"2 53062  97.6547 119.2197 0000461 105.1280 254.9996 15.01249279 16397","MEAN_MOTION":"15.01249279","DECAY_DATE":null,"APOAPSIS":"563.365","ARG_OF_PERICENTER":"105.1280","SEMIMAJOR_AXIS":"6941.180","SITE":"AFWTR","CLASSIFICATION_TYPE":"U","LAUNCH_DATE":"2022-07-11","REV_AT_EPOCH":"1639","OBJECT_TYPE":"PAYLOAD","RCS_SIZE":"LARGE","RA_OF_ASC_NODE":"119.2197","TIME_SYSTEM":"UTC"},{"REF_FRAME":"TEME","BSTAR":"0.00003271800000","INCLINATION":"97.6569","PERIOD":"95.972","OBJECT_ID":"2022-077W","CENTER_NAME":"EARTH","OBJECT_NAME":"STARLINK-4307","EPOCH":"2022-10-26T12:43:02.893440","NORAD_CAT_ID":"53063","MEAN_MOTION_DOT":"0.00000353","GP_ID":"216268139","MEAN_MOTION_DDOT":"0.0000000000000","EPHEMERIS_TYPE":"0","ECCENTRICITY":"0.00020370","TLE_LINE1":"1 53063U 22077W   22299.52989460  .00000353  00000-0  32718-4 0  9998","ELEMENT_SET_NO":"999","FILE":"3635100","COUNTRY_CODE":"US","DECAY_DATE":null,"APOAPSIS":"566.958","MEAN_ELEMENT_THEORY":"SGP4","TLE_LINE2":"2 53063  97.6569 119.0667 0002037 355.2932   4.8272 15.00438999 16369","MEAN_MOTION":"15.00438999","PERIAPSIS":"564.129","MEAN_ANOMALY":"4.8272","RCS_SIZE":"LARGE","RA_OF_ASC_NODE":"119.0667","OBJECT_TYPE":"PAYLOAD","TIME_SYSTEM":"UTC","LAUNCH_DATE":"2022-07-11","REV_AT_EPOCH":"1636","SITE":"AFWTR","CLASSIFICATION_TYPE":"U","ARG_OF_PERICENTER":"355.2932","SEMIMAJOR_AXIS":"6943.679"},{"ELEMENT_SET_NO":"999","FILE":"3635100","COUNTRY_CODE":"US","CENTER_NAME":"EARTH","REF_FRAME":"TEME","BSTAR":"0.00002222600000","OBJECT_ID":"2022-077X","PERIOD":"95.920","INCLINATION":"97.6547","NORAD_CAT_ID":"53064","EPOCH":"2022-10-26T19:29:28.077792","OBJECT_NAME":"STARLINK-4313","MEAN_MOTION_DOT":"0.00000226","GP_ID":"216267201","MEAN_MOTION_DDOT":"0.0000000000000","EPHEMERIS_TYPE":"0","TLE_LINE1":"1 53064U 22077X   22299.81213053  .00000226  00000-0  22226-4 0  9991","ECCENTRICITY":"0.00011320","TIME_SYSTEM":"UTC","RA_OF_ASC_NODE":"119.2169","RCS_SIZE":"LARGE","OBJECT_TYPE":"PAYLOAD","LAUNCH_DATE":"2022-07-11","REV_AT_EPOCH":"1639","CLASSIFICATION_TYPE":"U","SITE":"AFWTR","ARG_OF_PERICENTER":"135.9742","SEMIMAJOR_AXIS":"6941.184","APOAPSIS":"563.835","DECAY_DATE":null,"MEAN_MOTION":"15.01247939","MEAN_ELEMENT_THEORY":"SGP4","TLE_LINE2":"2 53064  97.6547 119.2169 0001132 135.9742 224.1572 15.01247939 16398","MEAN_ANOMALY":"224.1572","PERIAPSIS":"562.263"}];
